{
  "norad_id": 63447,
  "name": "STARLINK-33799",
  "history": [
    {
      "epoch": "2026-03-28T07:44:30.322752",
      "apogee_km": 476.0397716708194,
      "perigee_km": 474.48912105956606,
      "latitude_deg": -4.719793033024539,
      "longitude_deg": -164.3329747200478,
      "semi_major_axis_km": 6853.401446365193,
      "eccentricity": 0.00011313,
      "inclination_deg": 53.1605,
      "raan_deg": 56.2006,
      "arg_perigee_deg": 86.452,
      "mean_anomaly_deg": 273.661,
      "mean_motion_rev_day": 15.30183463
    },
    {
      "epoch": "2026-03-29T04:07:12.623232",
      "apogee_km": 476.0371074142495,
      "perigee_km": 474.3813389667275,
      "latitude_deg": -47.571775196915965,
      "longitude_deg": -82.81930752028711,
      "semi_major_axis_km": 6853.346223190489,
      "eccentricity": 0.0001208,
      "inclination_deg": 53.1605,
      "raan_deg": 52.2562,
      "arg_perigee_deg": 108.0898,
      "mean_anomaly_deg": 252.0234,
      "mean_motion_rev_day": 15.30201958
    }
  ]
}